{"fetched_at":"2026-03-29T16:36:15Z","count":15609,"tles":[{"name":"STARLINK-36450","line1":"1 67317U 26002N   26087.64399301  .00037367  00000+0  13595-2 0  9992","line2":"2 67317  42.9988 218.5757 0001491 264.3331  95.7350 15.27604745 14137","category":"Starlink"}]}