{
  "norad_id": 67317,
  "name": "STARLINK-36450",
  "history": [
    {
      "epoch": "2026-03-28T15:27:20.996064",
      "apogee_km": 483.99799340732807,
      "perigee_km": 481.95200980844766,
      "latitude_deg": 33.94838680221837,
      "longitude_deg": -106.47667104005814,
      "semi_major_axis_km": 6861.112001607888,
      "eccentricity": 0.0001491,
      "inclination_deg": 42.9988,
      "raan_deg": 218.5757,
      "arg_perigee_deg": 264.3331,
      "mean_anomaly_deg": 95.735,
      "mean_motion_rev_day": 15.27604745
    }
  ]
}